$$SOE
2460147.500000000, A.D. 2023-Jul-22 00:00:00.0000, 3.034837562214303E+08, -1.147180557353572E+08, 1.802181790716268E+07,
2460154.500000000, A.D. 2023-Jul-29 00:00:00.0000, 3.072687140654553E+08, -1.029079961748395E+08, 1.784742830491795E+07,
2460161.500000000, A.D. 2023-Aug-05 00:00:00.0000, 3.106173326480071E+08, -9.095173449041243E+07, 1.764768872513461E+07,
2460168.500000000, A.D. 2023-Aug-12 00:00:00.0000, 3.135232440740788E+08, -7.886577521498778E+07, 1.742279106758645E+07,
2460175.500000000, A.D. 2023-Aug-19 00:00:00.0000, 3.159807288200186E+08, -6.666694524328196E+07, 1.717296800320069E+07,
2460182.500000000, A.D. 2023-Aug-26 00:00:00.0000, 3.179847353333145E+08, -5.437236650938152E+07, 1.689849310532679E+07,
2460189.500000000, A.D. 2023-Sep-02 00:00:00.0000, 3.195308983808947E+08, -4.199942735757004E+07, 1.659968087789876E+07,
2460196.500000000, A.D. 2023-Sep-09 00:00:00.0000, 3.206155560630901E+08, -2.956575271577932E+07, 1.627688666849713E+07,
2460203.500000000, A.D. 2023-Sep-16 00:00:00.0000, 3.212357655389128E+08, -1.708917320388142E+07, 1.593050643978308E+07,
2460210.500000000, A.D. 2023-Sep-23 00:00:00.0000, 3.213893177576425E+08, -4.587692966235684E+06, 1.556097637852542E+07,
2460217.500000000, A.D. 2023-Sep-30 00:00:00.0000, 3.210747507502159E+08, 7.920544885440670E+06, 1.516877246839217E+07,
2460224.500000000, A.D. 2023-Oct-07 00:00:00.0000, 3.202913590470033E+08, 2.041729458514326E+07, 1.475441020075341E+07,
2460231.500000000, A.D. 2023-Oct-14 00:00:00.0000, 3.190392001896136E+08, 3.288424235393993E+07, 1.431844405943652E+07,
2460238.500000000, A.D. 2023-Oct-21 00:00:00.0000, 3.173191014862701E+08, 4.530304085008889E+07, 1.386146661414020E+07,
2460245.500000000, A.D. 2023-Oct-28 00:00:00.0000, 3.151326655163324E+08, 5.765534556281678E+07, 1.338410753873020E+07,
2460252.500000000, A.D. 2023-Nov-04 00:00:00.0000, 3.124822730770686E+08, 6.992285224564025E+07, 1.288703260799754E+07,
2460259.500000000, A.D. 2023-Nov-11 00:00:00.0000, 3.093710837023730E+08, 8.208733464767011E+07, 1.237094260972171E+07,
2460266.500000000, A.D. 2023-Nov-18 00:00:00.0000, 3.058030339336353E+08, 9.413068233160082E+07, 1.183657214911395E+07,
2460273.500000000, A.D. 2023-Nov-25 00:00:00.0000, 3.017828333863969E+08, 1.060349384505983E+08, 1.128468834378267E+07,
2460280.500000000, A.D. 2023-Dec-02 00:00:00.0000, 2.973159586235384E+08, 1.177823373206524E+08, 1.071608940937778E+07,
2460287.500000000, A.D. 2023-Dec-09 00:00:00.0000, 2.924086449089234E+08, 1.293553415765333E+08, 1.013160312839950E+07,
2460294.500000000, A.D. 2023-Dec-16 00:00:00.0000, 2.870678761402654E+08, 1.407366787699690E+08, 9.532085181834653E+06,
2460301.500000000, A.D. 2023-Dec-23 00:00:00.0000, 2.813013733319511E+08, 1.519093779395798E+08, 8.918417372529462E+06,
2460308.500000000, A.D. 2023-Dec-30 00:00:00.0000, 2.751175803331228E+08, 1.628568070467518E+08, 8.291505954200082E+06,
2460315.500000000, A.D. 2024-Jan-06 00:00:00.0000, 2.685256450562768E+08, 1.735627087772631E+08, 7.652280044006526E+06,
2460322.500000000, A.D. 2024-Jan-13 00:00:00.0000, 2.615353994634085E+08, 1.840112327596317E+08, 7.001689687668912E+06,
2460329.500000000, A.D. 2024-Jan-20 00:00:00.0000, 2.541573396061251E+08, 1.941869671387658E+08, 6.340703723112583E+06,
2460336.500000000, A.D. 2024-Jan-27 00:00:00.0000, 2.464026037712808E+08, 2.040749700231839E+08, 5.670307689590171E+06,
2460343.500000000, A.D. 2024-Feb-03 00:00:00.0000, 2.382829483999344E+08, 2.136607997332668E+08, 4.991501752452746E+06,
2460350.500000000, A.D. 2024-Feb-10 00:00:00.0000, 2.298107221647567E+08, 2.229305434433490E+08, 4.305298602869913E+06,
2460357.500000000, A.D. 2024-Feb-17 00:00:00.0000, 2.209988384614102E+08, 2.318708441184372E+08, 3.612721329074770E+06,
2460364.500000000, A.D. 2024-Feb-24 00:00:00.0000, 2.118607464746344E+08, 2.404689256633198E+08, 2.914801265825108E+06,
2460371.500000000, A.D. 2024-Mar-02 00:00:00.0000, 2.024104009801058E+08, 2.487126161655693E+08, 2.212575825619400E+06,
2460378.500000000, A.D. 2024-Mar-09 00:00:00.0000, 1.926622311585472E+08, 2.565903690959061E+08, 1.507086302755550E+06,
2460385.500000000, A.D. 2024-Mar-16 00:00:00.0000, 1.826311089613671E+08, 2.640912826032306E+08, 7.993756389058083E+05,
2460392.500000000, A.D. 2024-Mar-23 00:00:00.0000, 1.723323170747855E+08, 2.712051179629661E+08, 9.048625827914476E+04,
2460399.500000000, A.D. 2024-Mar-30 00:00:00.0000, 1.617815143862117E+08, 2.779223171039038E+08, -6.185418163873702E+05,
2460406.500000000, A.D. 2024-Apr-06 00:00:00.0000, 1.509946993475646E+08, 2.842340158225385E+08, -1.326672856102258E+06,
2460413.500000000, A.D. 2024-Apr-13 00:00:00.0000, 1.399881749423354E+08, 2.901320535210418E+08, -2.032877575793236E+06,
2460420.500000000, A.D. 2024-Apr-20 00:00:00.0000, 1.287785144565392E+08, 2.956089821416141E+08, -2.736135230147347E+06,
2460427.500000000, A.D. 2024-Apr-27 00:00:00.0000, 1.173825266771277E+08, 3.006580737431332E+08, -3.435435555000350E+06,
2460434.500000000, A.D. 2024-May-04 00:00:00.0000, 1.058172207438878E+08, 3.052733260407165E+08, -4.129780613293394E+06,
2460441.500000000, A.D. 2024-May-11 00:00:00.0000, 9.409977102814157E+07, 3.094494658428265E+08, -4.818186570019260E+06,
2460448.500000000, A.D. 2024-May-18 00:00:00.0000, 8.224748225023854E+07, 3.131819504548880E+08, -5.499685396915123E+06,
2460455.500000000, A.D. 2024-May-25 00:00:00.0000, 7.027775498533548E+07, 3.164669670994660E+08, -6.173326505585834E+06,
2460462.500000000, A.D. 2024-Jun-01 00:00:00.0000, 5.820805173696542E+07, 3.193014303600424E+08, -6.838178315938875E+06,
2460469.500000000, A.D. 2024-Jun-08 00:00:00.0000, 4.605586393800521E+07, 3.216829776934494E+08, -7.493329781696722E+06,
2460476.500000000, A.D. 2024-Jun-15 00:00:00.0000, 3.383868038176578E+07, 3.236099636263629E+08, -8.137891862505466E+06,
2460483.500000000, A.D. 2024-Jun-22 00:00:00.0000, 2.157395616974048E+07, 3.250814538860762E+08, -8.770998751937091E+06,
2460490.500000000, A.D. 2024-Jun-29 00:00:00.0000, 9.279080132775905E+06, 3.260972177193990E+08, -9.391808812238306E+06,
2460497.500000000, A.D. 2024-Jul-06 00:00:00.0000, -3.028656572501200E+06, 3.266577160177635E+08, -9.999505656179130E+06,
2460504.500000000, A.D. 2024-Jul-13 00:00:00.0000, -1.533208868378173E+07, 3.267640881934202E+08, -1.059329932437780E+07,
2460511.500000000, A.D. 2024-Jul-20 00:00:00.0000, -2.761420378777517E+07, 3.264181390680886E+08, -1.117242728480029E+07,
2460518.500000000, A.D. 2024-Jul-27 00:00:00.0000, -3.985816861007924E+07, 3.256223249127583E+08, -1.173615527431777E+07,
2460525.500000000, A.D. 2024-Aug-03 00:00:00.0000, -5.204735432523657E+07, 3.243797383600684E+08, -1.228377803945701E+07,
2460532.500000000, A.D. 2024-Aug-10 00:00:00.0000, -6.416536068973579E+07, 3.226940922812704E+08, -1.281461999357669E+07,
2460539.500000000, A.D. 2024-Aug-17 00:00:00.0000, -7.619603892837773E+07, 3.205697027458866E+08, -1.332803579495999E+07,
2460546.500000000, A.D. 2024-Aug-24 00:00:00.0000, -8.812351333194391E+07, 3.180114711376219E+08, -1.382341085245259E+07,
2460553.500000000, A.D. 2024-Aug-31 00:00:00.0000, -9.993220144352810E+07, 3.150248654592819E+08, -1.430016177683243E+07,
2460560.500000000, A.D. 2024-Sep-07 00:00:00.0000, -1.116068324680691E+08, 3.116159010448582E+08, -1.475773680389974E+07,
2460567.500000000, A.D. 2024-Sep-14 00:00:00.0000, -1.231324638276641E+08, 3.077911217648688E+08, -1.519561611895376E+07,
2460574.500000000, A.D. 2024-Sep-21 00:00:00.0000, -1.344944979046496E+08, 3.035575822288906E+08, -1.561331186719239E+07,
2460581.500000000, A.D. 2024-Sep-28 00:00:00.0000, -1.456786994705111E+08, 2.989228278401247E+08, -1.601036807275158E+07,
2460588.500000000, A.D. 2024-Oct-05 00:00:00.0000, -1.566712101511100E+08, 2.938948727702096E+08, -1.638636080416127E+07,
2460595.500000000, A.D. 2024-Oct-12 00:00:00.0000, -1.674585603239480E+08, 2.884821789105712E+08, -1.674089831357397E+07,
2460602.500000000, A.D. 2024-Oct-19 00:00:00.0000, -1.780276802286120E+08, 2.826936356065411E+08, -1.707362101638728E+07,
2460609.500000000, A.D. 2024-Oct-26 00:00:00.0000, -1.883659103533457E+08, 2.765385394368654E+08, -1.738420137720658E+07,
2460616.500000000, A.D. 2024-Nov-02 00:00:00.0000, -1.984610108766315E+08, 2.700265739484637E+08, -1.767234374105807E+07,
2460623.500000000, A.D. 2024-Nov-09 00:00:00.0000, -2.083011701067182E+08, 2.631677894221266E+08, -1.793778412043406E+07,
2460630.500000000, A.D. 2024-Nov-16 00:00:00.0000, -2.178750119346660E+08, 2.559725827202995E+08, -1.818028994397710E+07,
2460637.500000000, A.D. 2024-Nov-23 00:00:00.0000, -2.271716022968940E+08, 2.484516772133453E+08, -1.839965977855779E+07,
2460644.500000000, A.D. 2024-Nov-30 00:00:00.0000, -2.361804544828719E+08, 2.406161027831001E+08, -1.859572305055369E+07,
2460651.500000000, A.D. 2024-Dec-07 00:00:00.0000, -2.448915329133755E+08, 2.324771763607366E+08, -1.876833977343996E+07,
2460658.500000000, A.D. 2024-Dec-14 00:00:00.0000, -2.532952561251629E+08, 2.240464842549292E+08, -1.891740012162494E+07,
2460665.500000000, A.D. 2024-Dec-21 00:00:00.0000, -2.613825013307999E+08, 2.153358650612181E+08, -1.904282374321676E+07,
2460672.500000000, A.D. 2024-Dec-28 00:00:00.0000, -2.691446086245283E+08, 2.063573902142483E+08, -1.914455923825774E+07,
2460679.500000000, A.D. 2025-Jan-04 00:00:00.0000, -2.765733822750927E+08, 1.971233445735722E+08, -1.922258384705432E+07,
2460686.500000000, A.D. 2025-Jan-11 00:00:00.0000, -2.836610909766736E+08, 1.876462087148347E+08, -1.927690304831674E+07,
2460693.500000000, A.D. 2025-Jan-18 00:00:00.0000, -2.904004680252137E+08, 1.779386420255819E+08, -1.930755006197277E+07,
2460700.500000000, A.D. 2025-Jan-25 00:00:00.0000, -2.967847112200059E+08, 1.680134661442439E+08, -1.931458532028024E+07,
2460707.500000000, A.D. 2025-Feb-01 00:00:00.0000, -3.028074823431802E+08, 1.578836487194765E+08, -1.929809592901468E+07,
2460714.500000000, A.D. 2025-Feb-08 00:00:00.0000, -3.084629062008225E+08, 1.475622875144674E+08, -1.925819512454545E+07,
$$EOE